GLOBALSTAR M063         
1 26081U 00008A   24306.91530912 -.00000124  00000+0 -60173-3 0  9998
2 26081  51.9983 350.1216 0004653 235.3839 296.7552 11.86161392130607
GLOBALSTAR M062         
1 26082U 00008B   24306.54936256 -.00000178  00000+0 -57270-3 0  9992
2 26082  51.9868  45.1867 0006601 350.1118  24.0076 12.43451503468308
GLOBALSTAR M060         
1 26083U 00008C   24306.78955238 -.00000065  00000+0  25712-3 0  9990
2 26083  52.0038 332.3203 0003335  27.0096 144.7511 12.17646247124665
GLOBALSTAR M064         
1 26084U 00008D   24306.65357075 -.00000065  00000+0  25658-3 0  9991
2 26084  52.0017  92.3172 0001206  18.5208 341.5668 11.88525858140047
GLOBALSTAR M065         
1 31571U 07020A   24306.92298581 -.00000161  00000+0 -31954-3 0  9999
2 31571  51.9885 197.9759 0009935 156.8184 284.0997 12.61978899804710
GLOBALSTAR M069         
1 31573U 07020C   24306.88213281 -.00000019  00000+0  51628-3 0  9991
2 31573  51.9922 155.3753 0001749  60.8594  44.2040 12.53303903805816
GLOBALSTAR M072         
1 31574U 07020D   24305.63463388 -.00000048  00000+0  30845-3 0  9999
2 31574  52.0080 253.6182 0000717  25.7803 145.1774 12.62268287803952
GLOBALSTAR M071         
1 31576U 07020F   24306.92341594 -.00000023  00000+0  44873-3 0  9997
2 31576  52.0043 158.9056 0001653  54.4066  78.0054 12.62262433467037
